{
  "type": "FeatureCollection",
  "features": [
    {
      "type": "Feature",
      "properties": {
        "norad_id": 33605,
        "name": "FENGYUN 1C DEB",
        "group": "fengyun-1c-debris",
        "lat": 21.895778840096042,
        "lon": 162.02955103393734,
        "alt_km": 847.0892618786393,
        "timestamp": "2025-12-05T04:52:15.578533+00:00",
        "meta_object_name": "FENGYUN 1C DEB",
        "meta_object_id": "1999-025DCN",
        "meta_epoch": "2025-11-29T06:37:27.772032",
        "meta_mean_motion": 14.07732345,
        "meta_eccentricity": 0.00571999,
        "meta_inclination": 98.6988,
        "meta_ra_of_asc_node": 332.793,
        "meta_arg_of_pericenter": 112.5488,
        "meta_mean_anomaly": 264.4464,
        "meta_ephemeris_type": 0,
        "meta_classification_type": "U",
        "meta_norad_cat_id": 33605,
        "meta_element_set_no": 999,
        "meta_rev_at_epoch": 59629,
        "meta_bstar": 0.00056176503,
        "meta_mean_motion_dot": 9.23e-06,
        "meta_mean_motion_ddot": 0,
        "tle_line1": "1 33605U 99025DCN 25333.27601588  .00000923  00000+0  56177-3 0  9997",
        "tle_line2": "2 33605  98.6988 332.7930 0057199 112.5488 264.4464 14.07732345596291"
      },
      "geometry": {
        "type": "Point",
        "coordinates": [
          162.02955103393734,
          21.895778840096042
        ]
      }
    },
    {
      "type": "Feature",
      "properties": {
        "norad_id": 33612,
        "name": "FENGYUN 1C DEB",
        "group": "fengyun-1c-debris",
        "lat": -42.62696219812909,
        "lon": 120.81483077481398,
        "alt_km": 890.5567055288911,
        "timestamp": "2025-12-05T04:52:15.578542+00:00",
        "meta_object_name": "FENGYUN 1C DEB",
        "meta_object_id": "1999-025DCV",
        "meta_epoch": "2025-12-02T09:07:04.428768",
        "meta_mean_motion": 14.03995627,
        "meta_eccentricity": 0.0111082,
        "meta_inclination": 98.599,
        "meta_ra_of_asc_node": 306.1484,
        "meta_arg_of_pericenter": 137.5735,
        "meta_mean_anomaly": 223.4087,
        "meta_ephemeris_type": 0,
        "meta_classification_type": "U",
        "meta_norad_cat_id": 33612,
        "meta_element_set_no": 999,
        "meta_rev_at_epoch": 56528,
        "meta_bstar": 0.0015686766,
        "meta_mean_motion_dot": 2.58e-05,
        "meta_mean_motion_ddot": 0,
        "tle_line1": "1 33612U 99025DCV 25336.37991237  .00002580  00000+0  15687-2 0  9993",
        "tle_line2": "2 33612  98.5990 306.1484 0111082 137.5735 223.4087 14.03995627565285"
      },
      "geometry": {
        "type": "Point",
        "coordinates": [
          120.81483077481398,
          -42.62696219812909
        ]
      }
    },
    {
      "type": "Feature",
      "properties": {
        "norad_id": 33613,
        "name": "FENGYUN 1C DEB",
        "group": "fengyun-1c-debris",
        "lat": -62.008730228869915,
        "lon": 67.62067611731001,
        "alt_km": 811.0286068583946,
        "timestamp": "2025-12-05T04:52:15.578551+00:00",
        "meta_object_name": "FENGYUN 1C DEB",
        "meta_object_id": "1999-025DCW",
        "meta_epoch": "2025-11-24T11:05:45.286080",
        "meta_mean_motion": 14.32910608,
        "meta_eccentricity": 0.0031489,
        "meta_inclination": 98.6979,
        "meta_ra_of_asc_node": 40.1002,
        "meta_arg_of_pericenter": 140.9568,
        "meta_mean_anomaly": 219.3897,
        "meta_ephemeris_type": 0,
        "meta_classification_type": "U",
        "meta_norad_cat_id": 33613,
        "meta_element_set_no": 999,
        "meta_rev_at_epoch": 64248,
        "meta_bstar": 0.0024346,
        "meta_mean_motion_dot": 6.649e-05,
        "meta_mean_motion_ddot": 0,
        "tle_line1": "1 33613U 99025DCW 25328.46232970  .00006649  00000+0  24346-2 0  9999",
        "tle_line2": "2 33613  98.6979  40.1002 0031489 140.9568 219.3897 14.32910608642488"
      },
      "geometry": {
        "type": "Point",
        "coordinates": [
          67.62067611731001,
          -62.008730228869915
        ]
      }
    },
    {
      "type": "Feature",
      "properties": {
        "norad_id": 33618,
        "name": "FENGYUN 1C DEB",
        "group": "fengyun-1c-debris",
        "lat": 59.30498475813531,
        "lon": -99.05796093958399,
        "alt_km": 596.2637983472123,
        "timestamp": "2025-12-05T04:52:15.578560+00:00",
        "meta_object_name": "FENGYUN 1C DEB",
        "meta_object_id": "1999-025DDB",
        "meta_epoch": "2025-12-04T11:53:47.862240",
        "meta_mean_motion": 14.61977989,
        "meta_eccentricity": 0.0165262,
        "meta_inclination": 98.5318,
        "meta_ra_of_asc_node": 65.564,
        "meta_arg_of_pericenter": 165.8797,
        "meta_mean_anomaly": 194.7106,
        "meta_ephemeris_type": 0,
        "meta_classification_type": "U",
        "meta_norad_cat_id": 33618,
        "meta_element_set_no": 999,
        "meta_rev_at_epoch": 96663,
        "meta_bstar": 0.0026185,
        "meta_mean_motion_dot": 0.00015933,
        "meta_mean_motion_ddot": 0,
        "tle_line1": "1 33618U 99025DDB 25338.49569285  .00015933  00000+0  26185-2 0  9999",
        "tle_line2": "2 33618  98.5318  65.5640 0165262 165.8797 194.7106 14.61977989966637"
      },
      "geometry": {
        "type": "Point",
        "coordinates": [
          -99.05796093958399,
          59.30498475813531
        ]
      }
    },
    {
      "type": "Feature",
      "properties": {
        "norad_id": 33619,
        "name": "FENGYUN 1C DEB",
        "group": "fengyun-1c-debris",
        "lat": 51.76948184032924,
        "lon": -119.95457602443287,
        "alt_km": 809.9626241980477,
        "timestamp": "2025-12-05T04:52:15.578570+00:00",
        "meta_object_name": "FENGYUN 1C DEB",
        "meta_object_id": "1999-025DDC",
        "meta_epoch": "2025-11-30T03:59:31.835616",
        "meta_mean_motion": 14.17406202,
        "meta_eccentricity": 0.00518202,
        "meta_inclination": 98.8627,
        "meta_ra_of_asc_node": 43.6004,
        "meta_arg_of_pericenter": 82.3406,
        "meta_mean_anomaly": 278.3649,
        "meta_ephemeris_type": 0,
        "meta_classification_type": "U",
        "meta_norad_cat_id": 33619,
        "meta_element_set_no": 999,
        "meta_rev_at_epoch": 63446,
        "meta_bstar": 0.0015187763,
        "meta_mean_motion_dot": 3.073e-05,
        "meta_mean_motion_ddot": 0,
        "tle_line1": "1 33619U 99025DDC 25334.16634069  .00003073  00000+0  15188-2 0  9996",
        "tle_line2": "2 33619  98.8627  43.6004 0051820  82.3406 278.3649 14.17406202634469"
      },
      "geometry": {
        "type": "Point",
        "coordinates": [
          -119.95457602443287,
          51.76948184032924
        ]
      }
    },
    {
      "type": "Feature",
      "properties": {
        "norad_id": 33621,
        "name": "FENGYUN 1C DEB",
        "group": "fengyun-1c-debris",
        "lat": -17.60622320212464,
        "lon": -166.84583603684254,
        "alt_km": 645.6005887578585,
        "timestamp": "2025-12-05T04:52:15.578578+00:00",
        "meta_object_name": "FENGYUN 1C DEB",
        "meta_object_id": "1999-025DDE",
        "meta_epoch": "2025-11-24T20:15:43.256160",
        "meta_mean_motion": 14.19392117,
        "meta_eccentricity": 0.0285764,
        "meta_inclination": 98.141,
        "meta_ra_of_asc_node": 181.012,
        "meta_arg_of_pericenter": 346.9455,
        "meta_mean_anomaly": 12.4433,
        "meta_ephemeris_type": 0,
        "meta_classification_type": "U",
        "meta_norad_cat_id": 33621,
        "meta_element_set_no": 999,
        "meta_rev_at_epoch": 63990,
        "meta_bstar": 0.00068783,
        "meta_mean_motion_dot": 2.13e-05,
        "meta_mean_motion_ddot": 0,
        "tle_line1": "1 33621U 99025DDE 25328.84425065  .00002130  00000+0  68783-3 0  9994",
        "tle_line2": "2 33621  98.1410 181.0120 0285764 346.9455  12.4433 14.19392117639903"
      },
      "geometry": {
        "type": "Point",
        "coordinates": [
          -166.84583603684254,
          -17.60622320212464
        ]
      }
    },
    {
      "type": "Feature",
      "properties": {
        "norad_id": 33625,
        "name": "FENGYUN 1C DEB",
        "group": "fengyun-1c-debris",
        "lat": -0.654879868199807,
        "lon": -90.55867769387545,
        "alt_km": 544.9328942197544,
        "timestamp": "2025-12-05T04:52:15.578587+00:00",
        "meta_object_name": "FENGYUN 1C DEB",
        "meta_object_id": "1999-025DDJ",
        "meta_epoch": "2025-12-01T01:24:31.444992",
        "meta_mean_motion": 14.60592393,
        "meta_eccentricity": 0.02269611,
        "meta_inclination": 98.6203,
        "meta_ra_of_asc_node": 85.2252,
        "meta_arg_of_pericenter": 171.2387,
        "meta_mean_anomaly": 189.288,
        "meta_ephemeris_type": 0,
        "meta_classification_type": "U",
        "meta_norad_cat_id": 33625,
        "meta_element_set_no": 999,
        "meta_rev_at_epoch": 61220,
        "meta_bstar": 0.0017865562,
        "meta_mean_motion_dot": 0.00012473,
        "meta_mean_motion_ddot": 0,
        "tle_line1": "1 33625U 99025DDJ 25335.05869728  .00012473  00000+0  17866-2 0  9993",
        "tle_line2": "2 33625  98.6203  85.2252 0226961 171.2387 189.2880 14.60592393612207"
      },
      "geometry": {
        "type": "Point",
        "coordinates": [
          -90.55867769387545,
          -0.654879868199807
        ]
      }
    }
  ]
}